[
  {
    "name": "STARLINK-2141",
    "noradId": "47731",
    "line1": "1 47731U 21017K   26180.00002315  .00387464  68438-4  11422-2 0  9998",
    "line2": "2 47731  53.1508  20.5604 0007301 269.3973  43.3411 15.92087531  5926"
  },
  {
    "name": "STARLINK-2143",
    "noradId": "47733",
    "line1": "1 47733U 21017M   26179.90528712  .00005093  00000+0  17575-3 0  9998",
    "line2": "2 47733  53.1591  59.2644 0001210 104.0142 256.0994 15.31705482294754"
  },
  {
    "name": "STARLINK-2144",
    "noradId": "47734",
    "line1": "1 47734U 21017N   26179.90688436 -.00003489  00000+0 -10073-3 0  9994",
    "line2": "2 47734  53.1603  46.4681 0001342  87.6795 272.4360 15.31692008294909"
  },
  {
    "name": "STARLINK-2147",
    "noradId": "47736",
    "line1": "1 47736U 21017Q   26179.95616560  .00023036  00000+0  47726-3 0  9993",
    "line2": "2 47736  53.0720  38.9301 0003901 105.4337 254.7101 15.45669452295021"
  },
  {
    "name": "STARLINK-2150",
    "noradId": "47739",
    "line1": "1 47739U 21017T   26179.96688253 -.00000017  00000+0  11201-4 0  9990",
    "line2": "2 47739  53.1605  61.4953 0001044  99.6926 260.4194 15.31708241294733"
  },
  {
    "name": "STARLINK-2156",
    "noradId": "47742",
    "line1": "1 47742U 21017W   26179.90492364  .00008243  00000+0  27698-3 0  9998",
    "line2": "2 47742  53.1598  36.7347 0001294  89.6817 270.4332 15.31714243295077"
  },
  {
    "name": "STARLINK-2159",
    "noradId": "47745",
    "line1": "1 47745U 21017Z   26180.00002315  .00643916  00000+0  47560-2 0  9998",
    "line2": "2 47745  53.1522  29.0225 0001546  90.3018 284.5192 15.70522165  5947"
  },
  {
    "name": "STARLINK-2160",
    "noradId": "47746",
    "line1": "1 47746U 21017AA  26179.90728013  .00066127  00000+0  12172-2 0  9990",
    "line2": "2 47746  53.1570  39.3547 0004605 119.9259 240.2207 15.48582372294976"
  },
  {
    "name": "STARLINK-2161",
    "noradId": "47747",
    "line1": "1 47747U 21017AB  26179.83496601  .00008335  00000+0  28005-3 0  9998",
    "line2": "2 47747  53.1590  36.7965 0001153  81.9509 278.1623 15.31702207295049"
  },
  {
    "name": "STARLINK-2162",
    "noradId": "47748",
    "line1": "1 47748U 21017AC  26180.00002315  .00492689  11429-3  10164-2 0  9991",
    "line2": "2 47748  53.1468   6.7732 0010187 282.2796 167.9662 15.98602978  6038"
  },
  {
    "name": "STARLINK-2163",
    "noradId": "47749",
    "line1": "1 47749U 21017AD  26180.00002315  .00271946  00000+0  10874-2 0  9990",
    "line2": "2 47749  53.1510  15.0654 0003084 281.0466 248.0356 15.85287699  5857"
  },
  {
    "name": "STARLINK-2164",
    "noradId": "47750",
    "line1": "1 47750U 21017AE  26179.91415340  .00002237  00000+0  83826-4 0  9990",
    "line2": "2 47750  53.1598  36.0662 0001058  87.2359 272.8764 15.31695993295033"
  },
  {
    "name": "STARLINK-2169",
    "noradId": "47752",
    "line1": "1 47752U 21017AG  26180.00002315  .00084172  00000+0  50044-3 0  9991",
    "line2": "2 47752  53.1526  28.2133 0001145 273.1464  79.7964 15.77297631  5966"
  },
  {
    "name": "STARLINK-2170",
    "noradId": "47753",
    "line1": "1 47753U 21017AH  26179.86028550  .00010289  00000+0  34281-3 0  9996",
    "line2": "2 47753  53.1585  46.6909 0001103  87.9706 272.1421 15.31705007294925"
  },
  {
    "name": "STARLINK-2178",
    "noradId": "47760",
    "line1": "1 47760U 21017AQ  26179.86333768 -.00000434  00000+0 -22216-5 0  9994",
    "line2": "2 47760  53.1608  59.4757 0001249  97.4626 262.6518 15.31706790294729"
  },
  {
    "name": "STARLINK-2180",
    "noradId": "47762",
    "line1": "1 47762U 21017AS  26180.00002315  .00080262  00000+0  49715-3 0  9991",
    "line2": "2 47762  53.1547  35.5464 0002241 115.4988 239.9556 15.76387595  5948"
  },
  {
    "name": "STARLINK-2185",
    "noradId": "47767",
    "line1": "1 47767U 21017AX  26180.00002315  .01080398  00000+0  10239-1 0  9994",
    "line2": "2 47767  53.1535  34.2764 0001320  88.9148  69.5348 15.63914992  5936"
  },
  {
    "name": "STARLINK-2193",
    "noradId": "47770",
    "line1": "1 47770U 21017BA  26179.89756799  .00001593  00000+0  63109-4 0  9991",
    "line2": "2 47770  53.1612  46.5261 0001518 112.2275 247.8887 15.31700243294908"
  },
  {
    "name": "STARLINK-2194",
    "noradId": "47771",
    "line1": "1 47771U 21017BB  26179.90221922  .00008303  00000+0  27894-3 0  9995",
    "line2": "2 47771  53.1603  46.4383 0001012  96.1722 263.9395 15.31710932294919"
  },
  {
    "name": "STARLINK-2195",
    "noradId": "47772",
    "line1": "1 47772U 21017BC  26179.93333046  .00002151  00000+0  81051-4 0  9991",
    "line2": "2 47772  53.1611  59.7481 0001314  96.4577 263.6574 15.31703697294704"
  },
  {
    "name": "STARLINK-2196",
    "noradId": "47773",
    "line1": "1 47773U 21017BD  26179.93791833  .00005849  00000+0  20006-3 0  9993",
    "line2": "2 47773  53.1600  59.1551 0001230  99.0038 261.1103 15.31705608294708"
  },
  {
    "name": "STARLINK-2209",
    "noradId": "47776",
    "line1": "1 47776U 21017BG  26180.00002315  .01411590  00000+0  84509-2 0  9998",
    "line2": "2 47776  53.1531  29.0179 0001291  88.2650 112.9242 15.74405793  5855"
  },
  {
    "name": "STARLINK-2211",
    "noradId": "47778",
    "line1": "1 47778U 21017BJ  26179.97700965  .00058113  00000+0  94223-3 0  9992",
    "line2": "2 47778  53.1576  36.0029 0003460  93.0667 267.0739 15.52227915295050"
  },
  {
    "name": "STARLINK-2213",
    "noradId": "47780",
    "line1": "1 47780U 21017BL  26179.93950241  .00000420  00000+0  25272-4 0  9992",
    "line2": "2 47780  53.1612  46.2455 0000973 105.7295 254.3814 15.31709647294948"
  },
  {
    "name": "STARLINK-2257",
    "noradId": "47787",
    "line1": "1 47787U 21018A   26179.91253416  .00004859  00000+0  16818-3 0  9993",
    "line2": "2 47787  53.1600  88.2400 0001162 104.9357 255.1773 15.31709203293725"
  },
  {
    "name": "STARLINK-2314",
    "noradId": "47788",
    "line1": "1 47788U 21018B   26179.91157821  .00052516  00000+0  12488-2 0  9998",
    "line2": "2 47788  53.1564  58.8870 0003855  96.9577 263.1867 15.41155802294156"
  },
  {
    "name": "STARLINK-2315",
    "noradId": "47789",
    "line1": "1 47789U 21018C   26179.96228611  .00006946  00000+0  23539-3 0  9996",
    "line2": "2 47789  53.1595  81.6186 0001073  86.6601 273.4523 15.31697736293810"
  },
  {
    "name": "STARLINK-2319",
    "noradId": "47790",
    "line1": "1 47790U 21018D   26179.91926910  .00008876  00000+0  29731-3 0  9994",
    "line2": "2 47790  53.1608  59.1973 0001367  82.8572 277.2585 15.31716028294145"
  },
  {
    "name": "STARLINK-2322",
    "noradId": "47791",
    "line1": "1 47791U 21018E   26179.88885621  .00002945  00000+0  10660-3 0  9996",
    "line2": "2 47791  53.1610  85.5754 0001209 101.0597 259.0541 15.31709344293776"
  },
  {
    "name": "STARLINK-2334",
    "noradId": "47792",
    "line1": "1 47792U 21018F   26179.95292584  .00000291  00000+0  21147-4 0  9990",
    "line2": "2 47792  53.1610  81.4979 0001218 108.8128 251.3006 15.31712509293819"
  }
]