OBJECT_NAME,OBJECT_ID,EPOCH,MEAN_MOTION,ECCENTRICITY,INCLINATION,RA_OF_ASC_NODE,ARG_OF_PERICENTER,MEAN_ANOMALY,EPHEMERIS_TYPE,CLASSIFICATION_TYPE,NORAD_CAT_ID,ELEMENT_SET_NO,REV_AT_EPOCH,BSTAR,MEAN_MOTION_DOT,MEAN_MOTION_DDOT
STARLINK-2141,2021-017K,2026-06-29T00:00:02.000160,15.92087531,.00073011,53.1508,20.5604,269.3973,43.3411,0,U,47731,999,592,.11421875E-2,.387464E-2,.68438072E-4
STARLINK-2143,2021-017M,2026-06-28T21:43:36.807168,15.31705482,.00012106,53.1591,59.2644,104.0142,256.0994,0,U,47733,999,29475,.17575062E-3,.5093E-4,0
STARLINK-2144,2021-017N,2026-06-28T21:45:54.808704,15.31692008,.00013425,53.1603,46.4681,87.6795,272.4360,0,U,47734,999,29490,-.10072569E-3,-.3489E-4,0
STARLINK-2147,2021-017Q,2026-06-28T22:56:52.707840,15.45669452,.00039015,53.0720,38.9301,105.4337,254.7101,0,U,47736,999,29502,.47726207E-3,.23036E-3,0
STARLINK-2150,2021-017T,2026-06-28T23:12:18.650592,15.31708241,.00010449,53.1605,61.4953,99.6926,260.4194,0,U,47739,999,29473,.11200975E-4,-.17E-6,0
STARLINK-2156,2021-017W,2026-06-28T21:43:05.402496,15.31714243,.0001294,53.1598,36.7347,89.6817,270.4332,0,U,47742,999,29507,.27697769E-3,.8243E-4,0
STARLINK-2159,2021-017Z,2026-06-29T00:00:02.000160,15.70522165,.00015463,53.1522,29.0225,90.3018,284.5192,0,U,47745,999,594,.47559737E-2,.643916E-2,0
STARLINK-2160,2021-017AA,2026-06-28T21:46:29.003232,15.48582372,.0004605,53.1570,39.3547,119.9259,240.2207,0,U,47746,999,29497,.12171917E-2,.66127E-3,0
STARLINK-2161,2021-017AB,2026-06-28T20:02:21.063264,15.31702207,.00011535,53.1590,36.7965,81.9509,278.1623,0,U,47747,999,29504,.28004514E-3,.8335E-4,0
STARLINK-2162,2021-017AC,2026-06-29T00:00:02.000160,15.98602978,.00101876,53.1468,6.7732,282.2796,167.9662,0,U,47748,999,603,.10163806E-2,.492689E-2,.11429458E-3
STARLINK-2163,2021-017AD,2026-06-29T00:00:02.000160,15.85287699,.00030847,53.1510,15.0654,281.0466,248.0356,0,U,47749,999,585,.10874488E-2,.271946E-2,0
STARLINK-2164,2021-017AE,2026-06-28T21:56:22.853760,15.31695993,.00010582,53.1598,36.0662,87.2359,272.8764,0,U,47750,999,29503,.8382561E-4,.2237E-4,0
STARLINK-2169,2021-017AG,2026-06-29T00:00:02.000160,15.77297631,.00011452,53.1526,28.2133,273.1464,79.7964,0,U,47752,999,596,.50043722E-3,.84172E-3,0
STARLINK-2170,2021-017AH,2026-06-28T20:38:48.667200,15.31705007,.0001103,53.1585,46.6909,87.9706,272.1421,0,U,47753,999,29492,.34280685E-3,.10289E-3,0
STARLINK-2178,2021-017AQ,2026-06-28T20:43:12.375552,15.31706790,.00012498,53.1608,59.4757,97.4626,262.6518,0,U,47760,999,29472,-.2221567E-5,-.434E-5,0
STARLINK-2180,2021-017AS,2026-06-29T00:00:02.000160,15.76387595,.00022413,53.1547,35.5464,115.4988,239.9556,0,U,47762,999,594,.49714695E-3,.80262E-3,0
STARLINK-2185,2021-017AX,2026-06-29T00:00:02.000160,15.63914992,.00013202,53.1535,34.2764,88.9148,69.5348,0,U,47767,999,593,.10238568E-1,.1080398E-1,0
STARLINK-2193,2021-017BA,2026-06-28T21:32:29.874336,15.31700243,.00015185,53.1612,46.5261,112.2275,247.8887,0,U,47770,999,29490,.63108811E-4,.1593E-4,0
STARLINK-2194,2021-017BB,2026-06-28T21:39:11.740608,15.31710932,.00010123,53.1603,46.4383,96.1722,263.9395,0,U,47771,999,29491,.27893983E-3,.8303E-4,0
STARLINK-2195,2021-017BC,2026-06-28T22:23:59.751744,15.31703697,.00013142,53.1611,59.7481,96.4577,263.6574,0,U,47772,999,29470,.81051288E-4,.2151E-4,0
STARLINK-2196,2021-017BD,2026-06-28T22:30:36.143712,15.31705608,.00012306,53.1600,59.1551,99.0038,261.1103,0,U,47773,999,29470,.20005911E-3,.5849E-4,0
STARLINK-2209,2021-017BG,2026-06-29T00:00:02.000160,15.74405793,.00012918,53.1531,29.0179,88.2650,112.9242,0,U,47776,999,585,.84509417E-2,.141159E-1,0
STARLINK-2211,2021-017BJ,2026-06-28T23:26:53.633760,15.52227915,.00034609,53.1576,36.0029,93.0667,267.0739,0,U,47778,999,29505,.94223053E-3,.58113E-3,0
STARLINK-2213,2021-017BL,2026-06-28T22:32:53.008224,15.31709647,.0000973,53.1612,46.2455,105.7295,254.3814,0,U,47780,999,29494,.25272337E-4,.42E-5,0
STARLINK-2257,2021-018A,2026-06-28T21:54:02.951424,15.31709203,.00011623,53.1600,88.2400,104.9357,255.1773,0,U,47787,999,29372,.1681805E-3,.4859E-4,0
STARLINK-2314,2021-018B,2026-06-28T21:52:40.357344,15.41155802,.00038557,53.1564,58.8870,96.9577,263.1867,0,U,47788,999,29415,.12487829E-2,.52516E-3,0
STARLINK-2315,2021-018C,2026-06-28T23:05:41.519904,15.31697736,.0001073,53.1595,81.6186,86.6601,273.4523,0,U,47789,999,29381,.23539237E-3,.6946E-4,0
STARLINK-2319,2021-018D,2026-06-28T22:03:44.850240,15.31716028,.00013673,53.1608,59.1973,82.8572,277.2585,0,U,47790,999,29414,.29731489E-3,.8876E-4,0
STARLINK-2322,2021-018E,2026-06-28T21:19:57.176544,15.31709344,.00012099,53.1610,85.5754,101.0597,259.0541,0,U,47791,999,29377,.1066043E-3,.2945E-4,0
STARLINK-2334,2021-018F,2026-06-28T22:52:12.792576,15.31712509,.00012185,53.1610,81.4979,108.8128,251.3006,0,U,47792,999,29381,.21147425E-4,.291E-5,0
